{
  "type": "FeatureCollection",
  "features": [
    {
      "type": "Feature",
      "properties": { "id": "area-1", "name": "Zona 1" },
      "geometry": {
        "type": "Polygon",
        "coordinates": [[[20.055,41.1155],[20.074,41.1155],[20.074,41.133],[20.055,41.133],[20.055,41.1155]]]
      }
    },
    {
      "type": "Feature",
      "properties": { "id": "area-2", "name": "Zona 2" },
      "geometry": {
        "type": "Polygon",
        "coordinates": [[[20.074,41.1155],[20.093,41.1155],[20.093,41.133],[20.074,41.133],[20.074,41.1155]]]
      }
    },
    {
      "type": "Feature",
      "properties": { "id": "area-3", "name": "Zona 3" },
      "geometry": {
        "type": "Polygon",
        "coordinates": [[[20.093,41.1155],[20.112,41.1155],[20.112,41.133],[20.093,41.133],[20.093,41.1155]]]
      }
    },
    {
      "type": "Feature",
      "properties": { "id": "area-4", "name": "Zona 4" },
      "geometry": {
        "type": "Polygon",
        "coordinates": [[[20.055,41.098],[20.074,41.098],[20.074,41.1155],[20.055,41.1155],[20.055,41.098]]]
      }
    },
    {
      "type": "Feature",
      "properties": { "id": "area-5", "name": "Zona 5" },
      "geometry": {
        "type": "Polygon",
        "coordinates": [[[20.074,41.098],[20.093,41.098],[20.093,41.1155],[20.074,41.1155],[20.074,41.098]]]
      }
    },
    {
      "type": "Feature",
      "properties": { "id": "area-6", "name": "Zona 6" },
      "geometry": {
        "type": "Polygon",
        "coordinates": [[[20.093,41.098],[20.112,41.098],[20.112,41.1155],[20.093,41.1155],[20.093,41.098]]]
      }
    }
  ]
}
