{"type": "FeatureCollection", "features": [{"type": "Feature", "properties": {"name": "Vreshtas", "place": "village"}, "geometry": {"type": "Point", "coordinates": [20.0787847, 41.0906645]}}, {"type": "Feature", "properties": {"name": "Meng\u00ebl", "place": "village"}, "geometry": {"type": "Point", "coordinates": [20.1188463, 41.1202355]}}, {"type": "Feature", "properties": {"name": "Hajdaran", "place": "village"}, "geometry": {"type": "Point", "coordinates": [20.0953072, 41.0907997]}}, {"type": "Feature", "properties": {"name": "Kusarth", "place": "village"}, "geometry": {"type": "Point", "coordinates": [20.0534652, 41.1130216]}}, {"type": "Feature", "properties": {"name": "Gurabardh", "place": "village"}, "geometry": {"type": "Point", "coordinates": [20.0412979, 41.1297088]}}, {"type": "Feature", "properties": {"name": "Elbasan", "place": "city"}, "geometry": {"type": "Point", "coordinates": [20.0820858, 41.1126792]}}, {"type": "Feature", "properties": {"name": "Scampa", "place": "suburb"}, "geometry": {"type": "Point", "coordinates": [20.0810355, 41.1146031]}}, {"type": "Feature", "properties": {"name": "Byshek", "place": "village"}, "geometry": {"type": "Point", "coordinates": [20.1251138, 41.0996999]}}, {"type": "Feature", "properties": {"name": "Sheshi Elbasan Arena", "place": "square"}, "geometry": {"type": "Point", "coordinates": [20.0908967, 41.1155296]}}, {"type": "Feature", "properties": {"name": "Hotel Edlido"}, "geometry": {"type": "Point", "coordinates": [20.0850425, 41.1203174]}}, {"type": "Feature", "properties": {"name": "Hotel Imperial IH"}, "geometry": {"type": "Point", "coordinates": [20.0736546, 41.113941]}}, {"type": "Feature", "properties": {"name": "Hotel Le Olive"}, "geometry": {"type": "Point", "coordinates": [20.0722376, 41.1138974]}}, {"type": "Feature", "properties": {"name": "L\u00e9 Parfume"}, "geometry": {"type": "Point", "coordinates": [20.083615, 41.1166691]}}, {"type": "Feature", "properties": {"name": "Shkolla Joprivate Arianiti"}, "geometry": {"type": "Point", "coordinates": [20.0990689, 41.1234491]}}, {"type": "Feature", "properties": {"name": "Porta e Kalas\u00eb"}, "geometry": {"type": "Point", "coordinates": [20.0818204, 41.1129917]}}, {"type": "Feature", "properties": {"name": "HM"}, "geometry": {"type": "Point", "coordinates": [20.1118941, 41.1235548]}}, {"type": "Feature", "properties": {"name": "Bus-Kriva"}, "geometry": {"type": "Point", "coordinates": [20.0861517, 41.1218649]}}, {"type": "Feature", "properties": {"name": "Gastronomia e Ilirit"}, "geometry": {"type": "Point", "coordinates": [20.0869166, 41.1149398]}}, {"type": "Feature", "properties": {"name": "to Tirana"}, "geometry": {"type": "Point", "coordinates": [20.0785497, 41.1115687]}}, {"type": "Feature", "properties": {"name": "Kalaja e Elbasanit"}, "geometry": {"type": "Point", "coordinates": [20.0816304, 41.1133199]}}, {"type": "Feature", "properties": {"name": "Shkolla Jopublike Nikola Koperniku"}, "geometry": {"type": "Point", "coordinates": [20.0819727, 41.1147848]}}, {"type": "Feature", "properties": {"name": "Shkolla jo-publike Rahma"}, "geometry": {"type": "Point", "coordinates": [20.0793615, 41.1187277]}}, {"type": "Feature", "properties": {"name": "Nj\u00ebsia Administrative Nr. 5"}, "geometry": {"type": "Point", "coordinates": [20.081584, 41.1223292]}}, {"type": "Feature", "properties": {"name": "Qendra Sh\u00ebndet\u00ebsore Nr. 2"}, "geometry": {"type": "Point", "coordinates": [20.0760361, 41.1116062]}}, {"type": "Feature", "properties": {"name": "K\u00ebshilli Qarkut Elbasan"}, "geometry": {"type": "Point", "coordinates": [20.0807657, 41.1106526]}}, {"type": "Feature", "properties": {"name": "Klinika Shendeti"}, "geometry": {"type": "Point", "coordinates": [20.0713317, 41.1075064]}}, {"type": "Feature", "properties": {"name": "4 Stinet"}, "geometry": {"type": "Point", "coordinates": [20.0850637, 41.1143181]}}, {"type": "Feature", "properties": {"name": "Muzeu i Shkoll\u00ebs Normale t\u00eb Elbasanit"}, "geometry": {"type": "Point", "coordinates": [20.0892688, 41.1137462]}}, {"type": "Feature", "properties": {"name": "MarketKing"}, "geometry": {"type": "Point", "coordinates": [20.0885892, 41.1176693]}}, {"type": "Feature", "properties": {"name": "Lef Nosi"}, "geometry": {"type": "Point", "coordinates": [20.0821284, 41.1130486]}}, {"type": "Feature", "properties": {"name": "Aqif Pashe Elbasani"}, "geometry": {"type": "Point", "coordinates": [20.081535, 41.1128706]}}, {"type": "Feature", "properties": {"name": "Hotel Scampis"}, "geometry": {"type": "Point", "coordinates": [20.0805192, 41.1127967]}}, {"type": "Feature", "properties": {"name": "Villa Zoi Boutique Hotel I Inside Elbasan Castle"}, "geometry": {"type": "Point", "coordinates": [20.0815493, 41.1146592]}}, {"type": "Feature", "properties": {"name": "Elbasan Arena"}, "geometry": {"type": "Point", "coordinates": [20.0919924, 41.1158779]}}, {"type": "Feature", "properties": {"name": "Aqif Pasha"}, "geometry": {"type": "Point", "coordinates": [20.0817653, 41.1120568]}}, {"type": "Feature", "properties": {"name": "Kisha Katolike Sh\u00ebn Piu X"}, "geometry": {"type": "Point", "coordinates": [20.0923698, 41.1186138]}}, {"type": "Feature", "properties": {"name": "Bashkia Elbasan"}, "geometry": {"type": "Point", "coordinates": [20.0815259, 41.1108469]}}, {"type": "Feature", "properties": {"name": "Shen Maria Elbasan"}, "geometry": {"type": "Point", "coordinates": [20.0803722, 41.1154954]}}, {"type": "Feature", "properties": {"name": "Kisha Katolike Greke e Sh\u00ebn Pjetrit"}, "geometry": {"type": "Point", "coordinates": [20.0802268, 41.1159107]}}, {"type": "Feature", "properties": {"name": "Kompleksi Spitalor Rajonal Elbasan"}, "geometry": {"type": "Point", "coordinates": [20.08282, 41.1254359]}}, {"type": "Feature", "properties": {"name": "Poliklinika Specialiteteve"}, "geometry": {"type": "Point", "coordinates": [20.0842035, 41.1151016]}}, {"type": "Feature", "properties": {"name": "Sheshi \"Kozma Naska\""}, "geometry": {"type": "Point", "coordinates": [20.0871697, 41.1147628]}}, {"type": "Feature", "properties": {"name": "Shkolla 9-vje\u00e7are \"Abdyl Paralloi\""}, "geometry": {"type": "Point", "coordinates": [20.0897841, 41.1130874]}}, {"type": "Feature", "properties": {"name": "Xhamia Mbret"}, "geometry": {"type": "Point", "coordinates": [20.0812003, 41.1140209]}}, {"type": "Feature", "properties": {"name": "Kisha Apostolike e Re"}, "geometry": {"type": "Point", "coordinates": [20.0809334, 41.1141193]}}, {"type": "Feature", "properties": {"name": "Xhamia e Naziresh\u00ebs"}, "geometry": {"type": "Point", "coordinates": [20.0865345, 41.1052365]}}, {"type": "Feature", "properties": {"name": "Kisha e Sh\u00ebn Nikoll\u00ebs"}, "geometry": {"type": "Point", "coordinates": [20.0842145, 41.1047808]}}, {"type": "Feature", "properties": {"name": "Qendra Sh\u00ebndet\u00ebsore Nr. 1"}, "geometry": {"type": "Point", "coordinates": [20.0862736, 41.112195]}}, {"type": "Feature", "properties": {"name": "Universiteti i Elbasanit \"Aleksand\u00ebr Xhuvani\""}, "geometry": {"type": "Point", "coordinates": [20.0790262, 41.1222985]}}, {"type": "Feature", "properties": {"name": "Shkolla e Mesme e Bashkuar \"Luigj Gurakuqi\""}, "geometry": {"type": "Point", "coordinates": [20.089003, 41.1138606]}}, {"type": "Feature", "properties": {"name": "Sheshi Valmi"}, "geometry": {"type": "Point", "coordinates": [20.0792563, 41.1116037]}}, {"type": "Feature", "properties": {"name": "Parku Rinia"}, "geometry": {"type": "Point", "coordinates": [20.090133, 41.1180575]}}, {"type": "Feature", "properties": {"name": "Shkolla 9-vje\u00e7are \"Naim Frash\u00ebri\""}, "geometry": {"type": "Point", "coordinates": [20.0875961, 41.1161965]}}, {"type": "Feature", "properties": {"name": "Universiteti i Elbasanit - Fakulteti Ekonomik"}, "geometry": {"type": "Point", "coordinates": [20.0886997, 41.1163814]}}, {"type": "Feature", "properties": {"name": "Xhamia Sulejman Pash\u00eb V\u00ebrlaci"}, "geometry": {"type": "Point", "coordinates": [20.0797084, 41.1101001]}}, {"type": "Feature", "properties": {"name": "Shkolla 9-vje\u00e7are \"Qemal Haxhihasani\""}, "geometry": {"type": "Point", "coordinates": [20.0870484, 41.1193141]}}, {"type": "Feature", "properties": {"name": "Kisha e Jezu Krishtit e Shenjtor\u00ebve t\u00eb Dit\u00ebve t\u00eb M\u00ebvonshme"}, "geometry": {"type": "Point", "coordinates": [20.0635276, 41.1142577]}}, {"type": "Feature", "properties": {"name": "Xhamia e Ballies"}, "geometry": {"type": "Point", "coordinates": [20.0834203, 41.1126841]}}, {"type": "Feature", "properties": {"name": "Teatri Skampa"}, "geometry": {"type": "Point", "coordinates": [20.0838543, 41.1129926]}}]}